full_name,a,e,i,om,w,q,ad,per_y,data_arc,n_obs_used,H,first_obs,epoch
459451 (2012 WG32),1.834,0.4961,17.62,26.55,300.5,0.924,2.74,2.48,7374,182,17.59,2002-11-17,2460200.5
459458 (2012 XR134),2.016,0.7729,11.99,217.9,355.37,0.458,3.57,2.86,7341,179,18.55,1998-11-23,2460200.5
459462 (2013 AY52),1.314,0.4745,18.35,116.33,251.84,0.691,1.94,1.51,5790,548,19.95,2006-04-21,2460200.5
459683 (2013 MY5),1.662,0.4531,3,102.88,279.03,0.909,2.42,2.14,955,180,19.79,2013-06-18,2460200.5
459872 (2014 EK24),1.009,0.0701,4.8,340.55,63.93,0.938,1.08,1.01,1415,590,23.36,2014-03-04,2460200.5
461353 (1999 LS7),1.01,0.3008,13.05,252.29,123.79,0.706,1.31,1.02,6113,135,21.16,1999-06-08,2460200.5
461365 (2000 JF1),2.186,0.4519,11.4,54.89,220.36,1.198,3.17,3.23,8573,94,19.32,2000-04-27,2460200.5
461397 (2001 SD170),2.276,0.5286,25.27,197,215.88,1.073,3.48,3.43,6222,176,18.34,2001-07-25,2460200.5
461501 (2003 FT3),2.679,0.5676,4.32,181.54,84.7,1.159,4.2,4.39,6795,559,18.68,2003-03-25,2460200.5
461852 (2006 GY2),1.858,0.4959,30.56,54.29,216.72,0.936,2.78,2.53,3721,308,18.9,2006-04-09,2460200.5
461912 (2006 RG2),2.695,0.6503,8.58,30.77,75.27,0.943,4.45,4.42,5019,423,18.34,2006-09-14,2460200.5
462041 (2007 DL8),2.662,0.7633,19.64,154.72,135.37,0.63,4.69,4.34,5066,234,17.36,2007-02-21,2460200.5
462238 (2008 CN1),0.7707,0.3477,7.22,331.46,7.26,0.503,1.04,0.677,2945,568,20.66,2008-02-02,2460200.5
462329 (2008 JZ30),2.584,0.5278,25.46,161,91.64,1.22,3.95,4.15,4295,224,18.47,2008-05-14,2460200.5
462550 (2009 CB3),1.065,0.7237,21.51,158.74,229.51,0.294,1.84,1.1,4455,249,19.63,2009-02-04,2460200.5
462559 (2009 DD1),1.242,0.0807,29.39,158.29,104.98,1.142,1.34,1.38,5320,138,20.57,2009-02-19,2460200.5
462736 (2010 BL2),2.226,0.7843,59.84,91.21,199.61,0.48,3.97,3.32,5033,210,16.39,2010-01-07,2460200.5
462775 (2010 GY6),1.287,0.2342,21.91,204.67,116.04,0.985,1.59,1.46,4613,366,19.4,2010-04-06,2460200.5
462959 (2011 DU),1.171,0.3176,2.95,176.88,120.18,0.799,1.54,1.27,3618,299,21.11,2011-02-22,2460200.5
463216 (2012 DU30),2.597,0.5109,28.2,147,61.75,1.27,3.92,4.19,5680,175,18.31,2004-07-16,2460200.5
463257 (2012 GG1),1.582,0.3314,9.99,321.81,37.21,1.058,2.11,1.99,7342,82,18.57,2002-03-15,2460200.5
463282 (2012 HR15),2.471,0.7408,28.24,80.44,332.85,0.64,4.3,3.88,4321,339,16.96,2012-04-22,2460200.5
463360 (2012 TU),1.62,0.3342,11.22,0.79,269.01,1.079,2.16,2.06,3413,104,20.65,2008-10-31,2460200.5
463380 (2013 BY45),2.114,0.4057,28.7,132.03,330.94,1.256,2.97,3.07,3234,274,19.03,2010-04-06,2460200.5
463387 (2013 CT82),2.085,0.6248,1.8,271.39,90.53,0.782,3.39,3.01,3313,125,18.43,2013-02-08,2460200.5
463664 (2014 JY24),1.632,0.5928,19.96,67.27,38.16,0.665,2.6,2.09,9891,289,18.64,1991-05-14,2460200.5
464639 (2000 PO30),1.836,0.3995,3.58,201.01,218.02,1.103,2.57,2.49,7555,95,19.17,2000-08-02,2460200.5
464797 (2004 FZ1),1.794,0.531,52.63,152.6,89.49,0.841,2.75,2.4,6374,357,18.3,2004-03-18,2460200.5
464798 (2004 JX20),0.9016,0.2657,10.53,101.74,349.11,0.662,1.14,0.856,6978,981,19.37,2004-05-15,2460200.5
464885 (2005 LS3),1.49,0.268,34.89,85.22,123.58,1.09,1.89,1.82,10421,130,19.57,1994-07-10,2460200.5
465098 (2006 UQ217),2.988,0.5901,22.22,84.59,240.3,1.225,4.75,5.17,5934,399,16.62,2006-10-31,2460200.5
465166 (2007 EL),1.497,0.2757,34.33,357.25,299.33,1.084,1.91,1.83,8954,127,19.55,1996-03-17,2460200.5
465402 (2008 HW1),2.587,0.9601,10.47,127.55,250.63,0.103,5.07,4.16,4766,377,17.38,2008-03-30,2460200.5
465616 (2009 EC),1.768,0.3647,37.66,28.63,225.96,1.123,2.41,2.35,5195,409,18.83,2009-03-01,2460200.5
465617 (2009 EK1),1.241,0.2291,9.13,358.39,21.88,0.957,1.53,1.38,7813,86,21.36,2001-12-18,2460200.5
465633 (2009 JR5),1.252,0.3514,3.95,128.19,309.94,0.812,1.69,1.4,6528,156,20.44,2005-08-03,2460200.5
465749 (2009 WO6),3.082,0.5826,28.78,76.21,30.31,1.286,4.88,5.41,4243,497,17.31,2009-10-18,2460200.5
465824 (2010 FR),1.131,0.3653,14.24,167.28,272.72,0.718,1.54,1.2,3824,252,21.69,2010-03-18,2460200.5
465826 (2010 GA24),2.098,0.5459,7.69,30.7,237.54,0.953,3.24,3.04,2348,241,21.09,2010-04-04,2460200.5
465853 (2010 RJ42),1.629,0.323,33.1,341.27,249.6,1.103,2.16,2.08,2034,77,19.6,2010-09-05,2460200.5
465892 (2010 UT7),1.584,0.6606,25.43,65.75,277.34,0.537,2.63,1.99,3489,100,19.66,2010-10-29,2460200.5
466053 (2011 QF23),1.869,0.3765,24.56,160.9,164,1.165,2.57,2.56,3553,244,19.11,2011-08-26,2460200.5
466130 (2012 FZ23),2.483,0.6104,75.62,179.33,358.14,0.967,4,3.91,3070,253,18.25,2012-03-23,2460200.5
466191 (2012 KL45),1.688,0.3563,25.11,100.61,203.08,1.086,2.29,2.19,4241,153,18.8,2012-05-28,2460200.5
466507 (2014 FK33),0.9755,0.5035,26.96,15.77,328.2,0.484,1.47,0.964,759,184,20.82,2014-03-25,2460200.5
466508 (2014 GY48),1.61,0.4185,39.63,37.62,212.81,0.936,2.28,2.04,6393,549,18.72,2002-11-01,2460200.5
467309 (1996 AW1),1.534,0.5181,4.77,117.52,229.45,0.739,2.33,1.9,9161,355,19.95,1996-01-14,2460200.5
467317 (2000 QW7),1.949,0.469,4.15,158.56,190.99,1.035,2.86,2.72,7110,1294,19.83,2000-08-03,2460200.5
467335 (2002 JA9),1.985,0.483,10.49,93.52,230.65,1.026,2.94,2.8,6438,120,19.12,2002-05-05,2460200.5
467336 (2002 LT38),0.8453,0.3138,6.18,259.28,162.77,0.58,1.11,0.777,7698,833,20.61,2002-06-10,2460200.5
467347 (2003 GR),1.385,0.3177,55.83,21.12,273.04,0.945,1.82,1.63,4948,105,20.64,2003-04-03,2460200.5
467351 (2003 KO2),0.7277,0.5108,23.49,215.47,204.03,0.356,1.1,0.621,6603,465,20.36,2003-05-22,2460200.5
467352 (2003 KZ18),0.949,0.3308,23.89,249.96,154.62,0.635,1.26,0.925,4769,163,21.32,2003-05-31,2460200.5
467372 (2004 LG),2.065,0.8968,71.15,256.84,164.71,0.213,3.92,2.97,4360,132,18.11,2004-06-09,2460200.5
467460 (2006 JF42),0.6715,0.5819,5.94,40.84,17.78,0.281,1.06,0.55,6236,359,19.05,2006-05-11,2460200.5
467475 (2006 RG7),1.885,0.3502,22.02,180.98,192.12,1.225,2.55,2.59,6011,391,18.81,2006-09-15,2460200.5
467527 (2007 LA15),1.727,0.3809,8.72,152.61,177.08,1.069,2.39,2.27,6045,361,19.55,2007-06-13,2460200.5
467609 (2008 AV28),1.19,0.3367,15.29,304.56,5.96,0.789,1.59,1.3,5157,161,19.45,2007-12-19,2460200.5
467835 (2010 SS3),1.613,0.2424,26.48,193.17,101.71,1.222,2,2.05,3487,77,21.02,2010-09-16,2460200.5
467917 (2011 OP24),1.245,0.5695,15.34,144.92,320.9,0.536,1.95,1.39,4347,153,19.9,2011-07-28,2460200.5
467963 (2012 JT17),2.479,0.6159,14.32,224.99,118.02,0.952,4.01,3.9,3144,441,18.74,2012-05-15,2460200.5
468004 (2012 XD17),1.69,0.2347,19.06,68.28,255.52,1.294,2.09,2.2,4026,91,19.33,2012-12-05,2460200.5
468005 (2012 XD112),1.323,0.3658,3.72,97.77,76.81,0.839,1.81,1.52,3475,323,21.18,2012-12-10,2460200.5
468117 (2014 ED),1.546,0.6382,21.77,74.95,355.06,0.559,2.53,1.92,2278,92,19.18,2014-03-01,2460200.5
468446 (2002 XX4),1.79,0.2837,25.61,74.06,287.12,1.282,2.3,2.39,6823,89,19.95,2002-12-05,2460200.5
468448 (2003 LS3),2.649,0.5275,9.57,157.96,175.28,1.252,4.05,4.31,6197,619,17.94,2003-06-04,2460200.5
468452 (2003 SD170),2.202,0.4685,8.23,278.62,356.76,1.17,3.23,3.27,4773,171,19.19,2003-09-22,2460200.5
468462 (2004 BS102),1.706,0.3855,25.65,126.79,244.82,1.049,2.36,2.23,7308,161,19.21,2004-01-30,2460200.5
468468 (2004 KH17),0.7121,0.4982,22.13,79.13,340.71,0.357,1.07,0.601,6580,229,21.98,2004-05-29,2460200.5
468481 (2004 TP20),1.344,0.3509,25.37,213.49,264.9,0.872,1.82,1.56,6432,280,20.05,2004-10-15,2460200.5
468540 (2006 MD12),0.8386,0.6051,27.27,291.82,174.56,0.331,1.35,0.768,5912,377,19.45,2006-06-20,2460200.5
468541 (2006 QA31),1.198,0.4577,11.85,95.82,358.57,0.65,1.75,1.31,6209,188,20.09,2006-08-23,2460200.5
468583 (2007 LS),2.695,0.6818,6.38,200.92,168.65,0.857,4.53,4.42,3520,239,18.1,2007-06-08,2460200.5
468681 (2009 MZ6),2.314,0.4501,5.93,134.2,151.21,1.272,3.36,3.52,7637,198,20.5,2002-08-18,2460200.5
468684 (2009 QY33),1.473,0.2829,23.01,162.04,285.63,1.056,1.89,1.79,7426,277,19.67,2003-03-24,2460200.5
468727 (2010 JE87),0.9042,0.4371,16.91,120.48,242.32,0.509,1.3,0.86,4392,190,20.77,2010-05-10,2460200.5
468730 (2010 MN51),1.595,0.2444,33.62,139,113.89,1.206,1.99,2.02,4991,435,18.38,2010-06-23,2460200.5
468738 (2010 TN54),2.108,0.4451,4.72,283.32,35.14,1.17,3.05,3.06,5301,607,19.39,2007-11-20,2460200.5
468741 (2010 VM1),2.104,0.4429,5.83,167.5,129.2,1.172,3.04,3.05,4224,371,20.18,2010-11-02,2460200.5
468813 (2012 OT5),1.602,0.2599,5.75,129.15,147.8,1.186,2.02,2.03,2083,82,21.78,2012-07-29,2460200.5
468837 (2012 UP27),1.628,0.2652,6.28,193.54,130.88,1.196,2.06,2.08,1357,149,20.94,2012-09-23,2460200.5
468909 (2014 KZ44),0.98,0.3465,39.46,225.11,190.44,0.64,1.32,0.97,1483,127,20.52,2014-05-24,2460200.5
468910 (2014 KQ76),1.007,0.4233,4.77,127.64,325.12,0.581,1.43,1.01,7604,280,21.67,2002-07-18,2460200.5
469219 Kamo`oalewa (2016 HO3),1.001,0.1028,7.79,65.86,305.26,0.898,1.1,1,7279,313,24.33,2004-03-17,2460200.5
469356 (2001 DR8),1.926,0.6721,6.56,334.48,43.65,0.632,3.22,2.67,5873,114,18.81,2001-02-16,2460200.5
469373 (2001 RQ3),2.402,0.4736,15.65,188.2,127.38,1.264,3.54,3.72,5538,175,19.2,2001-09-09,2460200.5
469445 (2002 LT24),0.72,0.4958,0.76,166.11,282.67,0.363,1.08,0.611,6942,200,22.19,2002-06-09,2460200.5
469494 (2002 XS40),1.497,0.3383,11.63,97.62,83.8,0.991,2,1.83,7275,170,20.07,2002-11-30,2460200.5
469513 (2003 QR79),1.279,0.3055,17.16,333.02,103.18,0.888,1.67,1.45,4968,264,20.87,2003-08-28,2460200.5
469634 (2004 SZ19),1.797,0.3026,26.23,170.25,171.39,1.253,2.34,2.41,6823,184,19.12,2004-09-21,2460200.5
469722 (2005 LP40),1.963,0.5475,23.62,148.64,186.75,0.888,3.04,2.75,4220,93,19.45,2005-06-14,2460200.5
469727 (2005 NK1),1.604,0.727,33.55,113.69,10.13,0.438,2.77,2.03,6228,86,17.2,2005-07-03,2460200.5
469737 (2005 NW44),0.7793,0.4832,6.07,114.31,0.91,0.403,1.16,0.688,4750,404,20.39,2005-07-10,2460200.5
469896 (2005 WC1),1.4,0.4865,19.98,264.95,256.81,0.719,2.08,1.66,5445,223,20.67,2005-11-21,2460200.5
469929 (2006 AK8),1.157,0.1224,28.95,118.56,72.08,1.015,1.3,1.24,5666,79,21.13,2001-01-05,2460200.5
470004 (2006 MJ10),1.876,0.5859,39.29,106.04,272.59,0.777,2.98,2.57,3656,107,18.66,2006-06-22,2460200.5
470310 (2007 LB15),0.9384,0.3952,25.19,262.77,237.37,0.568,1.31,0.909,4156,186,19.61,2007-06-13,2460200.5
